[{"OBJECT_NAME":"STARLINK-4297","OBJECT_ID":"2022-101S","EPOCH":"2026-03-09T23:24:44.750016","MEAN_MOTION":15.08838023,"ECCENTRICITY":0.00014656,"INCLINATION":53.2178,"RA_OF_ASC_NODE":62.9007,"ARG_OF_PERICENTER":84.6766,"MEAN_ANOMALY":275.4393,"EPHEMERIS_TYPE":0,"CLASSIFICATION_TYPE":"U","NORAD_CAT_ID":53543,"ELEMENT_SET_NO":999,"REV_AT_EPOCH":19703,"BSTAR":4.5633786e-5,"MEAN_MOTION_DOT":4.38e-6,"MEAN_MOTION_DDOT":0},{"OBJECT_NAME":"OBJECT D","OBJECT_ID":"2025-013D","EPOCH":"2026-03-09T22:45:56.369376","MEAN_MOTION":15.10588544,"ECCENTRICITY":0.0008827,"INCLINATION":97.6457,"RA_OF_ASC_NODE":238.3603,"ARG_OF_PERICENTER":18.3993,"MEAN_ANOMALY":341.7554,"EPHEMERIS_TYPE":0,"CLASSIFICATION_TYPE":"U","NORAD_CAT_ID":62732,"ELEMENT_SET_NO":999,"REV_AT_EPOCH":6229,"BSTAR":0.00036300228,"MEAN_MOTION_DOT":5.935e-5,"MEAN_MOTION_DDOT":0}]
